[{"OBJECT_NAME":"STARLINK-31681","OBJECT_ID":"2024-090S","EPOCH":"2026-03-09T13:55:11.656128","MEAN_MOTION":15.27594916,"ECCENTRICITY":0.000127,"INCLINATION":43.0005,"RA_OF_ASC_NODE":177.1655,"ARG_OF_PERICENTER":261.5007,"MEAN_ANOMALY":98.5701,"EPHEMERIS_TYPE":0,"CLASSIFICATION_TYPE":"U","NORAD_CAT_ID":59746,"ELEMENT_SET_NO":999,"REV_AT_EPOCH":10350,"BSTAR":-2.527e-5,"MEAN_MOTION_DOT":-9.58e-6,"MEAN_MOTION_DDOT":0},{"OBJECT_NAME":"FENGYUN 1C DEB","OBJECT_ID":"1999-025ETT","EPOCH":"2026-03-07T08:30:03.670560","MEAN_MOTION":15.28888299,"ECCENTRICITY":0.00158464,"INCLINATION":99.1103,"RA_OF_ASC_NODE":112.0072,"ARG_OF_PERICENTER":201.0032,"MEAN_ANOMALY":159.0553,"EPHEMERIS_TYPE":0,"CLASSIFICATION_TYPE":"U","NORAD_CAT_ID":38726,"ELEMENT_SET_NO":999,"REV_AT_EPOCH":71135,"BSTAR":0.013792546,"MEAN_MOTION_DOT":0.00409659,"MEAN_MOTION_DDOT":0}]
